QIANFAN-33              
1 61566U 24185Q   25280.91325537  .00000542  00000+0  38311-3 0  9995
2 61566  88.9739  86.1460 0007504 156.1288 204.0238 13.96465894 59976
QIANFAN-34              
1 61567U 24185R   25280.93439711  .00000555  00000+0  35366-3 0  9999
2 61567  88.9717  85.7946 0006397 161.1077 199.0341 14.02217837 60136
QIANFAN-35              
1 61568U 24185S   25280.89363581  .00001290  00000+0  51617-3 0  9990
2 61568  88.9745  84.6069 0008185 130.6928 229.4979 14.27798269 60781
QIANFAN-36              
1 61569U 24185T   25280.89991264  .00000172  00000+0  23026-3 0  9997
2 61569  88.9726  87.9029 0004718 220.0546 140.0260 13.55561448 59002
QIANFAN-37              
1 62238U 24232B   25280.92694491  .00000120  00000+0  16760-3 0  9990
2 62238  89.0005  47.9601 0001126  98.1657 261.9622 13.50968748 90286
QIANFAN-38              
1 62239U 24232C   25280.95168034  .00000117  00000+0  16216-3 0  9995
2 62239  89.0012  47.8690 0015099  32.1967 328.0103 13.50977357 90340
QIANFAN-39              
1 62240U 24232D   25280.92351098  .00000731  00000+0  30436-3 0  9990
2 62240  89.0010  44.8217 0014088 296.9107  63.0646 14.25279478 92011
QIANFAN-40              
1 62241U 24232E   25280.91050093  .00000125  00000+0  17548-3 0  9997
2 62241  89.0040  47.4393 0014361  40.3457 319.8757 13.50976917 90700
